CCSDS_OMM_VERS = 2.0
CREATION_DATE  = 
ORIGINATOR     = 

OBJECT_NAME    = ALOS-2
OBJECT_ID      = 2014-029A
CENTER_NAME    = EARTH
REF_FRAME      = TEME
TIME_SYSTEM    = UTC
MEAN_ELEMENT_THEORY = SGP/SGP4

EPOCH          = 2026-03-08T05:32:32.218080
MEAN_MOTION    = 14.79496547
ECCENTRICITY   = .0001497
INCLINATION    = 97.9195
RA_OF_ASC_NODE = 165.8487
ARG_OF_PERICENTER = 98.0802
MEAN_ANOMALY   = 262.0579

EPHEMERIS_TYPE = 0
CLASSIFICATION_TYPE = U
NORAD_CAT_ID   = 39766
ELEMENT_SET_NO = 999
REV_AT_EPOCH   = 63665
BSTAR          = .25559E-3
MEAN_MOTION_DOT = .1859E-4
MEAN_MOTION_DDOT = 0

CCSDS_OMM_VERS = 2.0
CREATION_DATE  = 
ORIGINATOR     = 

OBJECT_NAME    = YAOGAN-29
OBJECT_ID      = 2015-069A
CENTER_NAME    = EARTH
REF_FRAME      = TEME
TIME_SYSTEM    = UTC
MEAN_ELEMENT_THEORY = SGP/SGP4

EPOCH          = 2026-03-08T04:12:12.693024
MEAN_MOTION    = 14.82995155
ECCENTRICITY   = .0002013
INCLINATION    = 98.0142
RA_OF_ASC_NODE = 95.6005
ARG_OF_PERICENTER = 40.8762
MEAN_ANOMALY   = 319.2602

EPHEMERIS_TYPE = 0
CLASSIFICATION_TYPE = U
NORAD_CAT_ID   = 41038
ELEMENT_SET_NO = 999
REV_AT_EPOCH   = 55565
BSTAR          = .13741E-3
MEAN_MOTION_DOT = .1062E-4
MEAN_MOTION_DDOT = 0

CCSDS_OMM_VERS = 2.0
CREATION_DATE  = 
ORIGINATOR     = 

OBJECT_NAME    = ASTRO-H (HITOMI)
OBJECT_ID      = 2016-012A
CENTER_NAME    = EARTH
REF_FRAME      = TEME
TIME_SYSTEM    = UTC
MEAN_ELEMENT_THEORY = SGP/SGP4

EPOCH          = 2026-03-08T02:43:46.364448
MEAN_MOTION    = 15.09993316
ECCENTRICITY   = .000992
INCLINATION    = 31.0009
RA_OF_ASC_NODE = 6.7171
ARG_OF_PERICENTER = 315.2979
MEAN_ANOMALY   = 44.6859

EPHEMERIS_TYPE = 0
CLASSIFICATION_TYPE = U
NORAD_CAT_ID   = 41337
ELEMENT_SET_NO = 999
REV_AT_EPOCH   = 55199
BSTAR          = .28836E-3
MEAN_MOTION_DOT = .49E-4
MEAN_MOTION_DDOT = 0

CCSDS_OMM_VERS = 2.0
CREATION_DATE  = 
ORIGINATOR     = 

OBJECT_NAME    = HXMT (HUIYAN)
OBJECT_ID      = 2017-034A
CENTER_NAME    = EARTH
REF_FRAME      = TEME
TIME_SYSTEM    = UTC
MEAN_ELEMENT_THEORY = SGP/SGP4

EPOCH          = 2026-03-08T04:44:57.384960
MEAN_MOTION    = 15.17438537
ECCENTRICITY   = .003275
INCLINATION    = 43.0154
RA_OF_ASC_NODE = 24.9665
ARG_OF_PERICENTER = 226.9133
MEAN_ANOMALY   = 132.8973

EPHEMERIS_TYPE = 0
CLASSIFICATION_TYPE = U
NORAD_CAT_ID   = 42758
ELEMENT_SET_NO = 999
REV_AT_EPOCH   = 48231
BSTAR          = .45622E-3
MEAN_MOTION_DOT = .9194E-4
MEAN_MOTION_DDOT = 0

CCSDS_OMM_VERS = 2.0
CREATION_DATE  = 
ORIGINATOR     = 

OBJECT_NAME    = SAOCOM 1A
OBJECT_ID      = 2018-076A
CENTER_NAME    = EARTH
REF_FRAME      = TEME
TIME_SYSTEM    = UTC
MEAN_ELEMENT_THEORY = SGP/SGP4

EPOCH          = 2026-03-08T03:21:55.865952
MEAN_MOTION    = 14.82167481
ECCENTRICITY   = .000128
INCLINATION    = 97.8888
RA_OF_ASC_NODE = 255.3343
ARG_OF_PERICENTER = 85.4180
MEAN_ANOMALY   = 274.7179

EPHEMERIS_TYPE = 0
CLASSIFICATION_TYPE = U
NORAD_CAT_ID   = 43641
ELEMENT_SET_NO = 999
REV_AT_EPOCH   = 40113
BSTAR          = .97041E-4
MEAN_MOTION_DOT = .721E-5
MEAN_MOTION_DDOT = 0

CCSDS_OMM_VERS = 2.0
CREATION_DATE  = 
ORIGINATOR     = 

OBJECT_NAME    = H-2A R/B
OBJECT_ID      = 2018-084L
CENTER_NAME    = EARTH
REF_FRAME      = TEME
TIME_SYSTEM    = UTC
MEAN_ELEMENT_THEORY = SGP/SGP4

EPOCH          = 2026-03-08T02:38:10.393728
MEAN_MOTION    = 15.41267342
ECCENTRICITY   = .0025551
INCLINATION    = 98.8730
RA_OF_ASC_NODE = 284.1600
ARG_OF_PERICENTER = 30.7005
MEAN_ANOMALY   = 329.5725

EPHEMERIS_TYPE = 0
CLASSIFICATION_TYPE = U
NORAD_CAT_ID   = 43682
ELEMENT_SET_NO = 999
REV_AT_EPOCH   = 40553
BSTAR          = .67661E-3
MEAN_MOTION_DOT = .28437E-3
MEAN_MOTION_DDOT = 0

CCSDS_OMM_VERS = 2.0
CREATION_DATE  = 
ORIGINATOR     = 

OBJECT_NAME    = SAOCOM 1B
OBJECT_ID      = 2020-059A
CENTER_NAME    = EARTH
REF_FRAME      = TEME
TIME_SYSTEM    = UTC
MEAN_ELEMENT_THEORY = SGP/SGP4

EPOCH          = 2026-03-06T22:57:01.124064
MEAN_MOTION    = 14.82173062
ECCENTRICITY   = .00015046
INCLINATION    = 97.8885
RA_OF_ASC_NODE = 253.2654
ARG_OF_PERICENTER = 81.2285
MEAN_ANOMALY   = 278.9098

EPHEMERIS_TYPE = 0
CLASSIFICATION_TYPE = U
NORAD_CAT_ID   = 46265
ELEMENT_SET_NO = 999
REV_AT_EPOCH   = 29834
BSTAR          = .17595012E-3
MEAN_MOTION_DOT = .1349E-4
MEAN_MOTION_DDOT = 0

CCSDS_OMM_VERS = 2.0
CREATION_DATE  = 
ORIGINATOR     = 

OBJECT_NAME    = CSS (TIANHE)
OBJECT_ID      = 2021-035A
CENTER_NAME    = EARTH
REF_FRAME      = TEME
TIME_SYSTEM    = UTC
MEAN_ELEMENT_THEORY = SGP/SGP4

EPOCH          = 2026-03-08T01:14:30.124320
MEAN_MOTION    = 15.60561665
ECCENTRICITY   = .0007
INCLINATION    = 41.4663
RA_OF_ASC_NODE = 218.1268
ARG_OF_PERICENTER = 262.9146
MEAN_ANOMALY   = 97.0897

EPHEMERIS_TYPE = 0
CLASSIFICATION_TYPE = U
NORAD_CAT_ID   = 48274
ELEMENT_SET_NO = 999
REV_AT_EPOCH   = 27735
BSTAR          = .33952E-3
MEAN_MOTION_DOT = .28649E-3
MEAN_MOTION_DDOT = 0

CCSDS_OMM_VERS = 2.0
CREATION_DATE  = 
ORIGINATOR     = 

OBJECT_NAME    = COSMOS 2550
OBJECT_ID      = 2021-056A
CENTER_NAME    = EARTH
REF_FRAME      = TEME
TIME_SYSTEM    = UTC
MEAN_ELEMENT_THEORY = SGP/SGP4

EPOCH          = 2026-03-08T05:06:58.550688
MEAN_MOTION    = 15.33829454
ECCENTRICITY   = .0008335
INCLINATION    = 67.1451
RA_OF_ASC_NODE = 45.3978
ARG_OF_PERICENTER = 269.5649
MEAN_ANOMALY   = 90.4550

EPHEMERIS_TYPE = 0
CLASSIFICATION_TYPE = U
NORAD_CAT_ID   = 48865
ELEMENT_SET_NO = 999
REV_AT_EPOCH   = 26323
BSTAR          = -.28484E-7
MEAN_MOTION_DOT = -.193E-5
MEAN_MOTION_DDOT = 0

CCSDS_OMM_VERS = 2.0
CREATION_DATE  = 
ORIGINATOR     = 

OBJECT_NAME    = CZ-2C R/B
OBJECT_ID      = 2022-058K
CENTER_NAME    = EARTH
REF_FRAME      = TEME
TIME_SYSTEM    = UTC
MEAN_ELEMENT_THEORY = SGP/SGP4

EPOCH          = 2026-03-08T02:20:56.384448
MEAN_MOTION    = 15.54100851
ECCENTRICITY   = .0042177
INCLINATION    = 50.1897
RA_OF_ASC_NODE = 326.4776
ARG_OF_PERICENTER = 194.0797
MEAN_ANOMALY   = 165.9000

EPHEMERIS_TYPE = 0
CLASSIFICATION_TYPE = U
NORAD_CAT_ID   = 52794
ELEMENT_SET_NO = 999
REV_AT_EPOCH   = 20988
BSTAR          = .68669E-3
MEAN_MOTION_DOT = .47047E-3
MEAN_MOTION_DDOT = 0

CCSDS_OMM_VERS = 2.0
CREATION_DATE  = 
ORIGINATOR     = 

OBJECT_NAME    = CZ-2C R/B
OBJECT_ID      = 2022-132E
CENTER_NAME    = EARTH
REF_FRAME      = TEME
TIME_SYSTEM    = UTC
MEAN_ELEMENT_THEORY = SGP/SGP4

EPOCH          = 2026-03-07T13:51:42.693408
MEAN_MOTION    = 15.61630713
ECCENTRICITY   = .0020767
INCLINATION    = 97.2968
RA_OF_ASC_NODE = 69.8304
ARG_OF_PERICENTER = 98.3512
MEAN_ANOMALY   = 262.0101

EPHEMERIS_TYPE = 0
CLASSIFICATION_TYPE = U
NORAD_CAT_ID   = 54039
ELEMENT_SET_NO = 999
REV_AT_EPOCH   = 19004
BSTAR          = .56501E-3
MEAN_MOTION_DOT = .49183E-3
MEAN_MOTION_DDOT = 0

CCSDS_OMM_VERS = 2.0
CREATION_DATE  = 
ORIGINATOR     = 

OBJECT_NAME    = GSLV R/B
OBJECT_ID      = 2022-138AN
CENTER_NAME    = EARTH
REF_FRAME      = TEME
TIME_SYSTEM    = UTC
MEAN_ELEMENT_THEORY = SGP/SGP4

EPOCH          = 2026-03-07T18:46:04.887264
MEAN_MOTION    = 14.96759254
ECCENTRICITY   = .00227971
INCLINATION    = 87.3881
RA_OF_ASC_NODE = 167.0012
ARG_OF_PERICENTER = 153.2839
MEAN_ANOMALY   = 206.9573

EPHEMERIS_TYPE = 0
CLASSIFICATION_TYPE = U
NORAD_CAT_ID   = 54149
ELEMENT_SET_NO = 999
REV_AT_EPOCH   = 18364
BSTAR          = .37521862E-3
MEAN_MOTION_DOT = .4339E-4
MEAN_MOTION_DDOT = 0

